{
    "links": {
        "self": "http://www.neowsapp.com/rest/v1/neo/54016953?api_key=iIulBulltgU6a56xZRHN4H3l9WmuAYTsLGpBGhQ2"
    },
    "id": "54016953",
    "neo_reference_id": "54016953",
    "name": "(2020 JE)",
    "designation": "2020 JE",
    "nasa_jpl_url": "http://ssd.jpl.nasa.gov/sbdb.cgi?sstr=54016953",
    "absolute_magnitude_h": 26.155,
    "estimated_diameter": {
        "kilometers": {
            "estimated_diameter_min": 0.015615467,
            "estimated_diameter_max": 0.0349172457
        },
        "meters": {
            "estimated_diameter_min": 15.6154669902,
            "estimated_diameter_max": 34.9172456906
        },
        "miles": {
            "estimated_diameter_min": 0.0097029983,
            "estimated_diameter_max": 0.0216965639
        },
        "feet": {
            "estimated_diameter_min": 51.2318487203,
            "estimated_diameter_max": 114.5578963515
        }
    },
    "is_potentially_hazardous_asteroid": false,
    "close_approach_data": [
        {
            "close_approach_date": "2020-05-07",
            "close_approach_date_full": "2020-May-07 15:07",
            "epoch_date_close_approach": 1588864020000,
            "relative_velocity": {
                "kilometers_per_second": "12.1191457611",
                "kilometers_per_hour": "43628.924740063",
                "miles_per_hour": "27109.3171530686"
            },
            "miss_distance": {
                "astronomical": "0.0301543203",
                "lunar": "11.7300305967",
                "kilometers": "4511022.088177761",
                "miles": "2803019.1478686618"
            },
            "orbiting_body": "Earth"
        }
    ],
    "orbital_data": {
        "orbit_id": "1",
        "orbit_determination_date": "2020-05-03 19:42:15",
        "first_observation_date": "2020-05-02",
        "last_observation_date": "2020-05-04",
        "data_arc_in_days": 2,
        "observations_used": 15,
        "orbit_uncertainty": "9",
        "minimum_orbit_intersection": ".0171809",
        "jupiter_tisserand_invariant": "3.691",
        "epoch_osculation": "2458972.5",
        "eccentricity": ".5191254790663535",
        "semi_major_axis": "1.958113163548487",
        "inclination": "9.678351331622519",
        "ascending_node_longitude": "45.37340671117108",
        "orbital_period": "1000.817999313893",
        "perihelion_distance": ".9416067294552454",
        "perihelion_argument": "223.8355657181247",
        "aphelion_distance": "2.974619597641728",
        "perihelion_time": "2459009.535334696996",
        "mean_anomaly": "346.6781767513586",
        "mean_motion": ".3597057609343525",
        "equinox": "J2000",
        "orbit_class": {
            "orbit_class_type": "APO",
            "orbit_class_description": "Near-Earth asteroid orbits which cross the Earth’s orbit similar to that of 1862 Apollo",
            "orbit_class_range": "a (semi-major axis) > 1.0 AU; q (perihelion) < 1.017 AU"
        }
    },
    "is_sentry_object": false
}